[{"OBJECT_NAME":"STARLINK-30954","OBJECT_ID":"2023-180F","EPOCH":"2026-03-09T00:16:29.178048","MEAN_MOTION":15.26752569,"ECCENTRICITY":7.925e-5,"INCLINATION":42.9992,"RA_OF_ASC_NODE":56.2501,"ARG_OF_PERICENTER":248.5691,"MEAN_ANOMALY":111.5076,"EPHEMERIS_TYPE":0,"CLASSIFICATION_TYPE":"U","NORAD_CAT_ID":58407,"ELEMENT_SET_NO":999,"REV_AT_EPOCH":12752,"BSTAR":5.8271801e-5,"MEAN_MOTION_DOT":1.304e-5,"MEAN_MOTION_DDOT":0},{"OBJECT_NAME":"OBJECT V","OBJECT_ID":"2025-155V","EPOCH":"2026-03-09T20:35:20.067360","MEAN_MOTION":15.27583301,"ECCENTRICITY":0.00080353,"INCLINATION":97.4485,"RA_OF_ASC_NODE":37.249,"ARG_OF_PERICENTER":152.8264,"MEAN_ANOMALY":207.3397,"EPHEMERIS_TYPE":0,"CLASSIFICATION_TYPE":"U","NORAD_CAT_ID":64895,"ELEMENT_SET_NO":999,"REV_AT_EPOCH":6557,"BSTAR":0.00051002361,"MEAN_MOTION_DOT":0.00013705,"MEAN_MOTION_DDOT":0}]
