STARLINK-30954          
1 58407U 23180F   26068.01144882  .00001304  00000+0  58272-4 0  9993
2 58407  42.9992  56.2501 0000792 248.5691 111.5076 15.26752569127529
2025-155V               
1 64895U 25155V   26068.85787115  .00013705  00000+0  51002-3 0  9990
2 64895  97.4485  37.2490 0008035 152.8264 207.3397 15.27583301 65579
